{
  "type": "FeatureCollection",
  "features": [
    {
      "type": "Feature",
      "id": "BLD-001",
      "properties": {
        "building_id": "BLD-001",
        "parcel_hint": "CULR-56000001",
        "source": "AI building extraction",
        "confidence": 0.84,
        "capture_date": "2026-07-15"
      },
      "geometry": {
        "type": "Polygon",
        "coordinates": [
          [
            [
              77.590216,
              12.968193
            ],
            [
              77.590724,
              12.968193
            ],
            [
              77.590724,
              12.968613
            ],
            [
              77.590216,
              12.968613
            ],
            [
              77.590216,
              12.968193
            ]
          ]
        ]
      }
    },
    {
      "type": "Feature",
      "id": "BLD-002",
      "properties": {
        "building_id": "BLD-002",
        "parcel_hint": "CULR-56000002",
        "source": "AI building extraction",
        "confidence": 0.85,
        "capture_date": "2026-07-15"
      },
      "geometry": {
        "type": "Polygon",
        "coordinates": [
          [
            [
              77.591405,
              12.9682
            ],
            [
              77.591935,
              12.9682
            ],
            [
              77.591935,
              12.968635
            ],
            [
              77.591405,
              12.968635
            ],
            [
              77.591405,
              12.9682
            ]
          ]
        ]
      }
    },
    {
      "type": "Feature",
      "id": "BLD-003",
      "properties": {
        "building_id": "BLD-003",
        "parcel_hint": "CULR-56000003",
        "source": "AI building extraction",
        "confidence": 0.86,
        "capture_date": "2026-07-15"
      },
      "geometry": {
        "type": "Polygon",
        "coordinates": [
          [
            [
              77.592595,
              12.968207
            ],
            [
              77.593145,
              12.968207
            ],
            [
              77.593145,
              12.968657
            ],
            [
              77.592595,
              12.968657
            ],
            [
              77.592595,
              12.968207
            ]
          ]
        ]
      }
    },
    {
      "type": "Feature",
      "id": "BLD-004",
      "properties": {
        "building_id": "BLD-004",
        "parcel_hint": "CULR-56000004",
        "source": "AI building extraction",
        "confidence": 0.87,
        "capture_date": "2026-07-15"
      },
      "geometry": {
        "type": "Polygon",
        "coordinates": [
          [
            [
              77.593756,
              12.968214
            ],
            [
              77.594264,
              12.968214
            ],
            [
              77.594264,
              12.968679
            ],
            [
              77.593756,
              12.968679
            ],
            [
              77.593756,
              12.968214
            ]
          ]
        ]
      }
    },
    {
      "type": "Feature",
      "id": "BLD-005",
      "properties": {
        "building_id": "BLD-005",
        "parcel_hint": "CULR-56000005",
        "source": "AI building extraction",
        "confidence": 0.88,
        "capture_date": "2026-07-15"
      },
      "geometry": {
        "type": "Polygon",
        "coordinates": [
          [
            [
              77.594945,
              12.968193
            ],
            [
              77.595475,
              12.968193
            ],
            [
              77.595475,
              12.968613
            ],
            [
              77.594945,
              12.968613
            ],
            [
              77.594945,
              12.968193
            ]
          ]
        ]
      }
    },
    {
      "type": "Feature",
      "id": "BLD-006",
      "properties": {
        "building_id": "BLD-006",
        "parcel_hint": "CULR-56000006",
        "source": "AI building extraction",
        "confidence": 0.89,
        "capture_date": "2026-07-15"
      },
      "geometry": {
        "type": "Polygon",
        "coordinates": [
          [
            [
              77.596135,
              12.9682
            ],
            [
              77.596685,
              12.9682
            ],
            [
              77.596685,
              12.968635
            ],
            [
              77.596135,
              12.968635
            ],
            [
              77.596135,
              12.9682
            ]
          ]
        ]
      }
    },
    {
      "type": "Feature",
      "id": "BLD-007",
      "properties": {
        "building_id": "BLD-007",
        "parcel_hint": "CULR-56000007",
        "source": "AI building extraction",
        "confidence": 0.9,
        "capture_date": "2026-07-15"
      },
      "geometry": {
        "type": "Polygon",
        "coordinates": [
          [
            [
              77.597296,
              12.968207
            ],
            [
              77.597804,
              12.968207
            ],
            [
              77.597804,
              12.968657
            ],
            [
              77.597296,
              12.968657
            ],
            [
              77.597296,
              12.968207
            ]
          ]
        ]
      }
    },
    {
      "type": "Feature",
      "id": "BLD-008",
      "properties": {
        "building_id": "BLD-008",
        "parcel_hint": "CULR-56000008",
        "source": "AI building extraction",
        "confidence": 0.91,
        "capture_date": "2026-07-15"
      },
      "geometry": {
        "type": "Polygon",
        "coordinates": [
          [
            [
              77.598485,
              12.968214
            ],
            [
              77.599015,
              12.968214
            ],
            [
              77.599015,
              12.968679
            ],
            [
              77.598485,
              12.968679
            ],
            [
              77.598485,
              12.968214
            ]
          ]
        ]
      }
    },
    {
      "type": "Feature",
      "id": "BLD-009",
      "properties": {
        "building_id": "BLD-009",
        "parcel_hint": "CULR-56000009",
        "source": "AI building extraction",
        "confidence": 0.92,
        "capture_date": "2026-07-15"
      },
      "geometry": {
        "type": "Polygon",
        "coordinates": [
          [
            [
              77.599675,
              12.968193
            ],
            [
              77.600225,
              12.968193
            ],
            [
              77.600225,
              12.968613
            ],
            [
              77.599675,
              12.968613
            ],
            [
              77.599675,
              12.968193
            ]
          ]
        ]
      }
    },
    {
      "type": "Feature",
      "id": "BLD-010",
      "properties": {
        "building_id": "BLD-010",
        "parcel_hint": "CULR-56000010",
        "source": "AI building extraction",
        "confidence": 0.93,
        "capture_date": "2026-07-15"
      },
      "geometry": {
        "type": "Polygon",
        "coordinates": [
          [
            [
              77.600836,
              12.9682
            ],
            [
              77.601344,
              12.9682
            ],
            [
              77.601344,
              12.968635
            ],
            [
              77.600836,
              12.968635
            ],
            [
              77.600836,
              12.9682
            ]
          ]
        ]
      }
    },
    {
      "type": "Feature",
      "id": "BLD-011",
      "properties": {
        "building_id": "BLD-011",
        "parcel_hint": "CULR-56000011",
        "source": "AI building extraction",
        "confidence": 0.94,
        "capture_date": "2026-07-15"
      },
      "geometry": {
        "type": "Polygon",
        "coordinates": [
          [
            [
              77.602025,
              12.968207
            ],
            [
              77.602555,
              12.968207
            ],
            [
              77.602555,
              12.968657
            ],
            [
              77.602025,
              12.968657
            ],
            [
              77.602025,
              12.968207
            ]
          ]
        ]
      }
    },
    {
      "type": "Feature",
      "id": "BLD-012",
      "properties": {
        "building_id": "BLD-012",
        "parcel_hint": "CULR-56000012",
        "source": "AI building extraction",
        "confidence": 0.95,
        "capture_date": "2026-07-15"
      },
      "geometry": {
        "type": "Polygon",
        "coordinates": [
          [
            [
              77.603215,
              12.968214
            ],
            [
              77.603765,
              12.968214
            ],
            [
              77.603765,
              12.968679
            ],
            [
              77.603215,
              12.968679
            ],
            [
              77.603215,
              12.968214
            ]
          ]
        ]
      }
    },
    {
      "type": "Feature",
      "id": "BLD-013",
      "properties": {
        "building_id": "BLD-013",
        "parcel_hint": "CULR-56000013",
        "source": "AI building extraction",
        "confidence": 0.96,
        "capture_date": "2026-07-15"
      },
      "geometry": {
        "type": "Polygon",
        "coordinates": [
          [
            [
              77.590216,
              12.969293
            ],
            [
              77.590724,
              12.969293
            ],
            [
              77.590724,
              12.969713
            ],
            [
              77.590216,
              12.969713
            ],
            [
              77.590216,
              12.969293
            ]
          ]
        ]
      }
    },
    {
      "type": "Feature",
      "id": "BLD-014",
      "properties": {
        "building_id": "BLD-014",
        "parcel_hint": "CULR-56000014",
        "source": "AI building extraction",
        "confidence": 0.97,
        "capture_date": "2026-07-15"
      },
      "geometry": {
        "type": "Polygon",
        "coordinates": [
          [
            [
              77.591405,
              12.9693
            ],
            [
              77.591935,
              12.9693
            ],
            [
              77.591935,
              12.969735
            ],
            [
              77.591405,
              12.969735
            ],
            [
              77.591405,
              12.9693
            ]
          ]
        ]
      }
    },
    {
      "type": "Feature",
      "id": "BLD-015",
      "properties": {
        "building_id": "BLD-015",
        "parcel_hint": "CULR-56000015",
        "source": "AI building extraction",
        "confidence": 0.84,
        "capture_date": "2026-07-15"
      },
      "geometry": {
        "type": "Polygon",
        "coordinates": [
          [
            [
              77.592595,
              12.969307
            ],
            [
              77.593145,
              12.969307
            ],
            [
              77.593145,
              12.969757
            ],
            [
              77.592595,
              12.969757
            ],
            [
              77.592595,
              12.969307
            ]
          ]
        ]
      }
    },
    {
      "type": "Feature",
      "id": "BLD-016",
      "properties": {
        "building_id": "BLD-016",
        "parcel_hint": "CULR-56000016",
        "source": "AI building extraction",
        "confidence": 0.85,
        "capture_date": "2026-07-15"
      },
      "geometry": {
        "type": "Polygon",
        "coordinates": [
          [
            [
              77.593756,
              12.969314
            ],
            [
              77.594264,
              12.969314
            ],
            [
              77.594264,
              12.969779
            ],
            [
              77.593756,
              12.969779
            ],
            [
              77.593756,
              12.969314
            ]
          ]
        ]
      }
    },
    {
      "type": "Feature",
      "id": "BLD-017",
      "properties": {
        "building_id": "BLD-017",
        "parcel_hint": "CULR-56000017",
        "source": "AI building extraction",
        "confidence": 0.86,
        "capture_date": "2026-07-15"
      },
      "geometry": {
        "type": "Polygon",
        "coordinates": [
          [
            [
              77.594945,
              12.969293
            ],
            [
              77.595475,
              12.969293
            ],
            [
              77.595475,
              12.969713
            ],
            [
              77.594945,
              12.969713
            ],
            [
              77.594945,
              12.969293
            ]
          ]
        ]
      }
    },
    {
      "type": "Feature",
      "id": "BLD-018",
      "properties": {
        "building_id": "BLD-018",
        "parcel_hint": "CULR-56000018",
        "source": "AI building extraction",
        "confidence": 0.87,
        "capture_date": "2026-07-15"
      },
      "geometry": {
        "type": "Polygon",
        "coordinates": [
          [
            [
              77.596135,
              12.9693
            ],
            [
              77.596685,
              12.9693
            ],
            [
              77.596685,
              12.969735
            ],
            [
              77.596135,
              12.969735
            ],
            [
              77.596135,
              12.9693
            ]
          ]
        ]
      }
    },
    {
      "type": "Feature",
      "id": "BLD-019",
      "properties": {
        "building_id": "BLD-019",
        "parcel_hint": "CULR-56000019",
        "source": "AI building extraction",
        "confidence": 0.88,
        "capture_date": "2026-07-15"
      },
      "geometry": {
        "type": "Polygon",
        "coordinates": [
          [
            [
              77.597296,
              12.969307
            ],
            [
              77.597804,
              12.969307
            ],
            [
              77.597804,
              12.969757
            ],
            [
              77.597296,
              12.969757
            ],
            [
              77.597296,
              12.969307
            ]
          ]
        ]
      }
    },
    {
      "type": "Feature",
      "id": "BLD-020",
      "properties": {
        "building_id": "BLD-020",
        "parcel_hint": "CULR-56000020",
        "source": "AI building extraction",
        "confidence": 0.89,
        "capture_date": "2026-07-15"
      },
      "geometry": {
        "type": "Polygon",
        "coordinates": [
          [
            [
              77.598485,
              12.969314
            ],
            [
              77.599015,
              12.969314
            ],
            [
              77.599015,
              12.969779
            ],
            [
              77.598485,
              12.969779
            ],
            [
              77.598485,
              12.969314
            ]
          ]
        ]
      }
    },
    {
      "type": "Feature",
      "id": "BLD-021",
      "properties": {
        "building_id": "BLD-021",
        "parcel_hint": "CULR-56000021",
        "source": "AI building extraction",
        "confidence": 0.9,
        "capture_date": "2026-07-15"
      },
      "geometry": {
        "type": "Polygon",
        "coordinates": [
          [
            [
              77.599675,
              12.969293
            ],
            [
              77.600225,
              12.969293
            ],
            [
              77.600225,
              12.969713
            ],
            [
              77.599675,
              12.969713
            ],
            [
              77.599675,
              12.969293
            ]
          ]
        ]
      }
    },
    {
      "type": "Feature",
      "id": "BLD-022",
      "properties": {
        "building_id": "BLD-022",
        "parcel_hint": "CULR-56000022",
        "source": "AI building extraction",
        "confidence": 0.91,
        "capture_date": "2026-07-15"
      },
      "geometry": {
        "type": "Polygon",
        "coordinates": [
          [
            [
              77.600836,
              12.9693
            ],
            [
              77.601344,
              12.9693
            ],
            [
              77.601344,
              12.969735
            ],
            [
              77.600836,
              12.969735
            ],
            [
              77.600836,
              12.9693
            ]
          ]
        ]
      }
    },
    {
      "type": "Feature",
      "id": "BLD-023",
      "properties": {
        "building_id": "BLD-023",
        "parcel_hint": "CULR-56000023",
        "source": "AI building extraction",
        "confidence": 0.92,
        "capture_date": "2026-07-15"
      },
      "geometry": {
        "type": "Polygon",
        "coordinates": [
          [
            [
              77.602025,
              12.969307
            ],
            [
              77.602555,
              12.969307
            ],
            [
              77.602555,
              12.969757
            ],
            [
              77.602025,
              12.969757
            ],
            [
              77.602025,
              12.969307
            ]
          ]
        ]
      }
    },
    {
      "type": "Feature",
      "id": "BLD-024",
      "properties": {
        "building_id": "BLD-024",
        "parcel_hint": "CULR-56000024",
        "source": "AI building extraction",
        "confidence": 0.93,
        "capture_date": "2026-07-15"
      },
      "geometry": {
        "type": "Polygon",
        "coordinates": [
          [
            [
              77.603215,
              12.969314
            ],
            [
              77.603765,
              12.969314
            ],
            [
              77.603765,
              12.969779
            ],
            [
              77.603215,
              12.969779
            ],
            [
              77.603215,
              12.969314
            ]
          ]
        ]
      }
    },
    {
      "type": "Feature",
      "id": "BLD-025",
      "properties": {
        "building_id": "BLD-025",
        "parcel_hint": "CULR-56000025",
        "source": "AI building extraction",
        "confidence": 0.94,
        "capture_date": "2026-07-15"
      },
      "geometry": {
        "type": "Polygon",
        "coordinates": [
          [
            [
              77.590216,
              12.970393
            ],
            [
              77.590724,
              12.970393
            ],
            [
              77.590724,
              12.970813
            ],
            [
              77.590216,
              12.970813
            ],
            [
              77.590216,
              12.970393
            ]
          ]
        ]
      }
    },
    {
      "type": "Feature",
      "id": "BLD-026",
      "properties": {
        "building_id": "BLD-026",
        "parcel_hint": "CULR-56000026",
        "source": "AI building extraction",
        "confidence": 0.95,
        "capture_date": "2026-07-15"
      },
      "geometry": {
        "type": "Polygon",
        "coordinates": [
          [
            [
              77.591405,
              12.9704
            ],
            [
              77.591935,
              12.9704
            ],
            [
              77.591935,
              12.970835
            ],
            [
              77.591405,
              12.970835
            ],
            [
              77.591405,
              12.9704
            ]
          ]
        ]
      }
    },
    {
      "type": "Feature",
      "id": "BLD-027",
      "properties": {
        "building_id": "BLD-027",
        "parcel_hint": "CULR-56000027",
        "source": "AI building extraction",
        "confidence": 0.96,
        "capture_date": "2026-07-15"
      },
      "geometry": {
        "type": "Polygon",
        "coordinates": [
          [
            [
              77.592595,
              12.970407
            ],
            [
              77.593145,
              12.970407
            ],
            [
              77.593145,
              12.970857
            ],
            [
              77.592595,
              12.970857
            ],
            [
              77.592595,
              12.970407
            ]
          ]
        ]
      }
    },
    {
      "type": "Feature",
      "id": "BLD-028",
      "properties": {
        "building_id": "BLD-028",
        "parcel_hint": "CULR-56000028",
        "source": "AI building extraction",
        "confidence": 0.97,
        "capture_date": "2026-07-15"
      },
      "geometry": {
        "type": "Polygon",
        "coordinates": [
          [
            [
              77.593756,
              12.970414
            ],
            [
              77.594264,
              12.970414
            ],
            [
              77.594264,
              12.970879
            ],
            [
              77.593756,
              12.970879
            ],
            [
              77.593756,
              12.970414
            ]
          ]
        ]
      }
    },
    {
      "type": "Feature",
      "id": "BLD-029",
      "properties": {
        "building_id": "BLD-029",
        "parcel_hint": "CULR-56000029",
        "source": "AI building extraction",
        "confidence": 0.84,
        "capture_date": "2026-07-15"
      },
      "geometry": {
        "type": "Polygon",
        "coordinates": [
          [
            [
              77.594945,
              12.970393
            ],
            [
              77.595475,
              12.970393
            ],
            [
              77.595475,
              12.970813
            ],
            [
              77.594945,
              12.970813
            ],
            [
              77.594945,
              12.970393
            ]
          ]
        ]
      }
    },
    {
      "type": "Feature",
      "id": "BLD-030",
      "properties": {
        "building_id": "BLD-030",
        "parcel_hint": "CULR-56000030",
        "source": "AI building extraction",
        "confidence": 0.85,
        "capture_date": "2026-07-15"
      },
      "geometry": {
        "type": "Polygon",
        "coordinates": [
          [
            [
              77.596135,
              12.9704
            ],
            [
              77.596685,
              12.9704
            ],
            [
              77.596685,
              12.970835
            ],
            [
              77.596135,
              12.970835
            ],
            [
              77.596135,
              12.9704
            ]
          ]
        ]
      }
    },
    {
      "type": "Feature",
      "id": "BLD-031",
      "properties": {
        "building_id": "BLD-031",
        "parcel_hint": "CULR-56000031",
        "source": "AI building extraction",
        "confidence": 0.86,
        "capture_date": "2026-07-15"
      },
      "geometry": {
        "type": "Polygon",
        "coordinates": [
          [
            [
              77.597296,
              12.970407
            ],
            [
              77.597804,
              12.970407
            ],
            [
              77.597804,
              12.970857
            ],
            [
              77.597296,
              12.970857
            ],
            [
              77.597296,
              12.970407
            ]
          ]
        ]
      }
    },
    {
      "type": "Feature",
      "id": "BLD-032",
      "properties": {
        "building_id": "BLD-032",
        "parcel_hint": "CULR-56000032",
        "source": "AI building extraction",
        "confidence": 0.87,
        "capture_date": "2026-07-15"
      },
      "geometry": {
        "type": "Polygon",
        "coordinates": [
          [
            [
              77.598485,
              12.970414
            ],
            [
              77.599015,
              12.970414
            ],
            [
              77.599015,
              12.970879
            ],
            [
              77.598485,
              12.970879
            ],
            [
              77.598485,
              12.970414
            ]
          ]
        ]
      }
    },
    {
      "type": "Feature",
      "id": "BLD-033",
      "properties": {
        "building_id": "BLD-033",
        "parcel_hint": "CULR-56000033",
        "source": "AI building extraction",
        "confidence": 0.88,
        "capture_date": "2026-07-15"
      },
      "geometry": {
        "type": "Polygon",
        "coordinates": [
          [
            [
              77.599675,
              12.970393
            ],
            [
              77.600225,
              12.970393
            ],
            [
              77.600225,
              12.970813
            ],
            [
              77.599675,
              12.970813
            ],
            [
              77.599675,
              12.970393
            ]
          ]
        ]
      }
    },
    {
      "type": "Feature",
      "id": "BLD-034",
      "properties": {
        "building_id": "BLD-034",
        "parcel_hint": "CULR-56000034",
        "source": "AI building extraction",
        "confidence": 0.89,
        "capture_date": "2026-07-15"
      },
      "geometry": {
        "type": "Polygon",
        "coordinates": [
          [
            [
              77.600836,
              12.9704
            ],
            [
              77.601344,
              12.9704
            ],
            [
              77.601344,
              12.970835
            ],
            [
              77.600836,
              12.970835
            ],
            [
              77.600836,
              12.9704
            ]
          ]
        ]
      }
    },
    {
      "type": "Feature",
      "id": "BLD-035",
      "properties": {
        "building_id": "BLD-035",
        "parcel_hint": "CULR-56000035",
        "source": "AI building extraction",
        "confidence": 0.9,
        "capture_date": "2026-07-15"
      },
      "geometry": {
        "type": "Polygon",
        "coordinates": [
          [
            [
              77.602025,
              12.970407
            ],
            [
              77.602555,
              12.970407
            ],
            [
              77.602555,
              12.970857
            ],
            [
              77.602025,
              12.970857
            ],
            [
              77.602025,
              12.970407
            ]
          ]
        ]
      }
    },
    {
      "type": "Feature",
      "id": "BLD-036",
      "properties": {
        "building_id": "BLD-036",
        "parcel_hint": "CULR-56000036",
        "source": "AI building extraction",
        "confidence": 0.91,
        "capture_date": "2026-07-15"
      },
      "geometry": {
        "type": "Polygon",
        "coordinates": [
          [
            [
              77.603215,
              12.970414
            ],
            [
              77.603765,
              12.970414
            ],
            [
              77.603765,
              12.970879
            ],
            [
              77.603215,
              12.970879
            ],
            [
              77.603215,
              12.970414
            ]
          ]
        ]
      }
    },
    {
      "type": "Feature",
      "id": "BLD-037",
      "properties": {
        "building_id": "BLD-037",
        "parcel_hint": "CULR-56000037",
        "source": "AI building extraction",
        "confidence": 0.92,
        "capture_date": "2026-07-15"
      },
      "geometry": {
        "type": "Polygon",
        "coordinates": [
          [
            [
              77.590216,
              12.971493
            ],
            [
              77.590724,
              12.971493
            ],
            [
              77.590724,
              12.971913
            ],
            [
              77.590216,
              12.971913
            ],
            [
              77.590216,
              12.971493
            ]
          ]
        ]
      }
    },
    {
      "type": "Feature",
      "id": "BLD-038",
      "properties": {
        "building_id": "BLD-038",
        "parcel_hint": "CULR-56000038",
        "source": "AI building extraction",
        "confidence": 0.93,
        "capture_date": "2026-07-15"
      },
      "geometry": {
        "type": "Polygon",
        "coordinates": [
          [
            [
              77.591405,
              12.9715
            ],
            [
              77.591935,
              12.9715
            ],
            [
              77.591935,
              12.971935
            ],
            [
              77.591405,
              12.971935
            ],
            [
              77.591405,
              12.9715
            ]
          ]
        ]
      }
    },
    {
      "type": "Feature",
      "id": "BLD-039",
      "properties": {
        "building_id": "BLD-039",
        "parcel_hint": "CULR-56000039",
        "source": "AI building extraction",
        "confidence": 0.94,
        "capture_date": "2026-07-15"
      },
      "geometry": {
        "type": "Polygon",
        "coordinates": [
          [
            [
              77.592595,
              12.971507
            ],
            [
              77.593145,
              12.971507
            ],
            [
              77.593145,
              12.971957
            ],
            [
              77.592595,
              12.971957
            ],
            [
              77.592595,
              12.971507
            ]
          ]
        ]
      }
    },
    {
      "type": "Feature",
      "id": "BLD-040",
      "properties": {
        "building_id": "BLD-040",
        "parcel_hint": "CULR-56000040",
        "source": "AI building extraction",
        "confidence": 0.95,
        "capture_date": "2026-07-15"
      },
      "geometry": {
        "type": "Polygon",
        "coordinates": [
          [
            [
              77.593756,
              12.971514
            ],
            [
              77.594264,
              12.971514
            ],
            [
              77.594264,
              12.971979
            ],
            [
              77.593756,
              12.971979
            ],
            [
              77.593756,
              12.971514
            ]
          ]
        ]
      }
    },
    {
      "type": "Feature",
      "id": "BLD-041",
      "properties": {
        "building_id": "BLD-041",
        "parcel_hint": "CULR-56000041",
        "source": "AI building extraction",
        "confidence": 0.96,
        "capture_date": "2026-07-15"
      },
      "geometry": {
        "type": "Polygon",
        "coordinates": [
          [
            [
              77.594945,
              12.971493
            ],
            [
              77.595475,
              12.971493
            ],
            [
              77.595475,
              12.971913
            ],
            [
              77.594945,
              12.971913
            ],
            [
              77.594945,
              12.971493
            ]
          ]
        ]
      }
    },
    {
      "type": "Feature",
      "id": "BLD-042",
      "properties": {
        "building_id": "BLD-042",
        "parcel_hint": "CULR-56000042",
        "source": "AI building extraction",
        "confidence": 0.97,
        "capture_date": "2026-07-15"
      },
      "geometry": {
        "type": "Polygon",
        "coordinates": [
          [
            [
              77.596135,
              12.9715
            ],
            [
              77.596685,
              12.9715
            ],
            [
              77.596685,
              12.971935
            ],
            [
              77.596135,
              12.971935
            ],
            [
              77.596135,
              12.9715
            ]
          ]
        ]
      }
    },
    {
      "type": "Feature",
      "id": "BLD-043",
      "properties": {
        "building_id": "BLD-043",
        "parcel_hint": "CULR-56000043",
        "source": "AI building extraction",
        "confidence": 0.84,
        "capture_date": "2026-07-15"
      },
      "geometry": {
        "type": "Polygon",
        "coordinates": [
          [
            [
              77.597296,
              12.971507
            ],
            [
              77.597804,
              12.971507
            ],
            [
              77.597804,
              12.971957
            ],
            [
              77.597296,
              12.971957
            ],
            [
              77.597296,
              12.971507
            ]
          ]
        ]
      }
    },
    {
      "type": "Feature",
      "id": "BLD-044",
      "properties": {
        "building_id": "BLD-044",
        "parcel_hint": "CULR-56000044",
        "source": "AI building extraction",
        "confidence": 0.85,
        "capture_date": "2026-07-15"
      },
      "geometry": {
        "type": "Polygon",
        "coordinates": [
          [
            [
              77.598485,
              12.971514
            ],
            [
              77.599015,
              12.971514
            ],
            [
              77.599015,
              12.971979
            ],
            [
              77.598485,
              12.971979
            ],
            [
              77.598485,
              12.971514
            ]
          ]
        ]
      }
    },
    {
      "type": "Feature",
      "id": "BLD-045",
      "properties": {
        "building_id": "BLD-045",
        "parcel_hint": "CULR-56000045",
        "source": "AI building extraction",
        "confidence": 0.86,
        "capture_date": "2026-07-15"
      },
      "geometry": {
        "type": "Polygon",
        "coordinates": [
          [
            [
              77.599675,
              12.971493
            ],
            [
              77.600225,
              12.971493
            ],
            [
              77.600225,
              12.971913
            ],
            [
              77.599675,
              12.971913
            ],
            [
              77.599675,
              12.971493
            ]
          ]
        ]
      }
    },
    {
      "type": "Feature",
      "id": "BLD-046",
      "properties": {
        "building_id": "BLD-046",
        "parcel_hint": "CULR-56000046",
        "source": "AI building extraction",
        "confidence": 0.87,
        "capture_date": "2026-07-15"
      },
      "geometry": {
        "type": "Polygon",
        "coordinates": [
          [
            [
              77.600836,
              12.9715
            ],
            [
              77.601344,
              12.9715
            ],
            [
              77.601344,
              12.971935
            ],
            [
              77.600836,
              12.971935
            ],
            [
              77.600836,
              12.9715
            ]
          ]
        ]
      }
    },
    {
      "type": "Feature",
      "id": "BLD-047",
      "properties": {
        "building_id": "BLD-047",
        "parcel_hint": "CULR-56000047",
        "source": "AI building extraction",
        "confidence": 0.88,
        "capture_date": "2026-07-15"
      },
      "geometry": {
        "type": "Polygon",
        "coordinates": [
          [
            [
              77.602025,
              12.971507
            ],
            [
              77.602555,
              12.971507
            ],
            [
              77.602555,
              12.971957
            ],
            [
              77.602025,
              12.971957
            ],
            [
              77.602025,
              12.971507
            ]
          ]
        ]
      }
    },
    {
      "type": "Feature",
      "id": "BLD-048",
      "properties": {
        "building_id": "BLD-048",
        "parcel_hint": "CULR-56000048",
        "source": "AI building extraction",
        "confidence": 0.89,
        "capture_date": "2026-07-15"
      },
      "geometry": {
        "type": "Polygon",
        "coordinates": [
          [
            [
              77.603215,
              12.971514
            ],
            [
              77.603765,
              12.971514
            ],
            [
              77.603765,
              12.971979
            ],
            [
              77.603215,
              12.971979
            ],
            [
              77.603215,
              12.971514
            ]
          ]
        ]
      }
    },
    {
      "type": "Feature",
      "id": "BLD-049",
      "properties": {
        "building_id": "BLD-049",
        "parcel_hint": "CULR-56000049",
        "source": "AI building extraction",
        "confidence": 0.9,
        "capture_date": "2026-07-15"
      },
      "geometry": {
        "type": "Polygon",
        "coordinates": [
          [
            [
              77.590216,
              12.972593
            ],
            [
              77.590724,
              12.972593
            ],
            [
              77.590724,
              12.973013
            ],
            [
              77.590216,
              12.973013
            ],
            [
              77.590216,
              12.972593
            ]
          ]
        ]
      }
    },
    {
      "type": "Feature",
      "id": "BLD-050",
      "properties": {
        "building_id": "BLD-050",
        "parcel_hint": "CULR-56000050",
        "source": "AI building extraction",
        "confidence": 0.91,
        "capture_date": "2026-07-15"
      },
      "geometry": {
        "type": "Polygon",
        "coordinates": [
          [
            [
              77.591405,
              12.9726
            ],
            [
              77.591935,
              12.9726
            ],
            [
              77.591935,
              12.973035
            ],
            [
              77.591405,
              12.973035
            ],
            [
              77.591405,
              12.9726
            ]
          ]
        ]
      }
    },
    {
      "type": "Feature",
      "id": "BLD-051",
      "properties": {
        "building_id": "BLD-051",
        "parcel_hint": "CULR-56000051",
        "source": "AI building extraction",
        "confidence": 0.92,
        "capture_date": "2026-07-15"
      },
      "geometry": {
        "type": "Polygon",
        "coordinates": [
          [
            [
              77.592595,
              12.972607
            ],
            [
              77.593145,
              12.972607
            ],
            [
              77.593145,
              12.973057
            ],
            [
              77.592595,
              12.973057
            ],
            [
              77.592595,
              12.972607
            ]
          ]
        ]
      }
    },
    {
      "type": "Feature",
      "id": "BLD-052",
      "properties": {
        "building_id": "BLD-052",
        "parcel_hint": "CULR-56000052",
        "source": "AI building extraction",
        "confidence": 0.93,
        "capture_date": "2024-01-15"
      },
      "geometry": {
        "type": "Polygon",
        "coordinates": [
          [
            [
              77.593756,
              12.972614
            ],
            [
              77.594264,
              12.972614
            ],
            [
              77.594264,
              12.973079
            ],
            [
              77.593756,
              12.973079
            ],
            [
              77.593756,
              12.972614
            ]
          ]
        ]
      }
    },
    {
      "type": "Feature",
      "id": "BLD-053",
      "properties": {
        "building_id": "BLD-053",
        "parcel_hint": "CULR-56000053",
        "source": "AI building extraction",
        "confidence": 0.94,
        "capture_date": "2026-07-15"
      },
      "geometry": {
        "type": "Polygon",
        "coordinates": [
          [
            [
              77.594945,
              12.972593
            ],
            [
              77.595475,
              12.972593
            ],
            [
              77.595475,
              12.973013
            ],
            [
              77.594945,
              12.973013
            ],
            [
              77.594945,
              12.972593
            ]
          ]
        ]
      }
    },
    {
      "type": "Feature",
      "id": "BLD-054",
      "properties": {
        "building_id": "BLD-054",
        "parcel_hint": "CULR-56000054",
        "source": "AI building extraction",
        "confidence": 0.95,
        "capture_date": "2026-07-15"
      },
      "geometry": {
        "type": "Polygon",
        "coordinates": [
          [
            [
              77.596135,
              12.9726
            ],
            [
              77.596685,
              12.9726
            ],
            [
              77.596685,
              12.973035
            ],
            [
              77.596135,
              12.973035
            ],
            [
              77.596135,
              12.9726
            ]
          ]
        ]
      }
    },
    {
      "type": "Feature",
      "id": "BLD-055",
      "properties": {
        "building_id": "BLD-055",
        "parcel_hint": "CULR-56000055",
        "source": "AI building extraction",
        "confidence": 0.96,
        "capture_date": "2026-07-15"
      },
      "geometry": {
        "type": "Polygon",
        "coordinates": [
          [
            [
              77.597296,
              12.972607
            ],
            [
              77.597804,
              12.972607
            ],
            [
              77.597804,
              12.973057
            ],
            [
              77.597296,
              12.973057
            ],
            [
              77.597296,
              12.972607
            ]
          ]
        ]
      }
    },
    {
      "type": "Feature",
      "id": "BLD-056",
      "properties": {
        "building_id": "BLD-056",
        "parcel_hint": "CULR-56000056",
        "source": "AI building extraction",
        "confidence": 0.97,
        "capture_date": "2026-07-15"
      },
      "geometry": {
        "type": "Polygon",
        "coordinates": [
          [
            [
              77.598485,
              12.972614
            ],
            [
              77.599015,
              12.972614
            ],
            [
              77.599015,
              12.973079
            ],
            [
              77.598485,
              12.973079
            ],
            [
              77.598485,
              12.972614
            ]
          ]
        ]
      }
    },
    {
      "type": "Feature",
      "id": "BLD-057",
      "properties": {
        "building_id": "BLD-057",
        "parcel_hint": "CULR-56000057",
        "source": "AI building extraction",
        "confidence": 0.84,
        "capture_date": "2026-07-15"
      },
      "geometry": {
        "type": "Polygon",
        "coordinates": [
          [
            [
              77.599675,
              12.972593
            ],
            [
              77.600225,
              12.972593
            ],
            [
              77.600225,
              12.973013
            ],
            [
              77.599675,
              12.973013
            ],
            [
              77.599675,
              12.972593
            ]
          ]
        ]
      }
    },
    {
      "type": "Feature",
      "id": "BLD-058",
      "properties": {
        "building_id": "BLD-058",
        "parcel_hint": "CULR-56000058",
        "source": "AI building extraction",
        "confidence": 0.85,
        "capture_date": "2026-07-15"
      },
      "geometry": {
        "type": "Polygon",
        "coordinates": [
          [
            [
              77.600836,
              12.9726
            ],
            [
              77.601344,
              12.9726
            ],
            [
              77.601344,
              12.973035
            ],
            [
              77.600836,
              12.973035
            ],
            [
              77.600836,
              12.9726
            ]
          ]
        ]
      }
    },
    {
      "type": "Feature",
      "id": "BLD-059",
      "properties": {
        "building_id": "BLD-059",
        "parcel_hint": "CULR-56000059",
        "source": "AI building extraction",
        "confidence": 0.86,
        "capture_date": "2026-07-15"
      },
      "geometry": {
        "type": "Polygon",
        "coordinates": [
          [
            [
              77.602025,
              12.972607
            ],
            [
              77.602555,
              12.972607
            ],
            [
              77.602555,
              12.973057
            ],
            [
              77.602025,
              12.973057
            ],
            [
              77.602025,
              12.972607
            ]
          ]
        ]
      }
    },
    {
      "type": "Feature",
      "id": "BLD-060",
      "properties": {
        "building_id": "BLD-060",
        "parcel_hint": "CULR-56000060",
        "source": "AI building extraction",
        "confidence": 0.87,
        "capture_date": "2026-07-15"
      },
      "geometry": {
        "type": "Polygon",
        "coordinates": [
          [
            [
              77.603215,
              12.972614
            ],
            [
              77.603765,
              12.972614
            ],
            [
              77.603765,
              12.973079
            ],
            [
              77.603215,
              12.973079
            ],
            [
              77.603215,
              12.972614
            ]
          ]
        ]
      }
    },
    {
      "type": "Feature",
      "id": "BLD-061",
      "properties": {
        "building_id": "BLD-061",
        "parcel_hint": "CULR-56000061",
        "source": "AI building extraction",
        "confidence": 0.88,
        "capture_date": "2026-07-15"
      },
      "geometry": {
        "type": "Polygon",
        "coordinates": [
          [
            [
              77.590216,
              12.973693
            ],
            [
              77.590724,
              12.973693
            ],
            [
              77.590724,
              12.974113
            ],
            [
              77.590216,
              12.974113
            ],
            [
              77.590216,
              12.973693
            ]
          ]
        ]
      }
    },
    {
      "type": "Feature",
      "id": "BLD-062",
      "properties": {
        "building_id": "BLD-062",
        "parcel_hint": "CULR-56000062",
        "source": "AI building extraction",
        "confidence": 0.89,
        "capture_date": "2026-07-15"
      },
      "geometry": {
        "type": "Polygon",
        "coordinates": [
          [
            [
              77.591405,
              12.9737
            ],
            [
              77.591935,
              12.9737
            ],
            [
              77.591935,
              12.974135
            ],
            [
              77.591405,
              12.974135
            ],
            [
              77.591405,
              12.9737
            ]
          ]
        ]
      }
    },
    {
      "type": "Feature",
      "id": "BLD-063",
      "properties": {
        "building_id": "BLD-063",
        "parcel_hint": "CULR-56000063",
        "source": "AI building extraction",
        "confidence": 0.9,
        "capture_date": "2026-07-15"
      },
      "geometry": {
        "type": "Polygon",
        "coordinates": [
          [
            [
              77.592595,
              12.973707
            ],
            [
              77.593145,
              12.973707
            ],
            [
              77.593145,
              12.974157
            ],
            [
              77.592595,
              12.974157
            ],
            [
              77.592595,
              12.973707
            ]
          ]
        ]
      }
    },
    {
      "type": "Feature",
      "id": "BLD-064",
      "properties": {
        "building_id": "BLD-064",
        "parcel_hint": "CULR-56000064",
        "source": "AI building extraction",
        "confidence": 0.91,
        "capture_date": "2026-07-15"
      },
      "geometry": {
        "type": "Polygon",
        "coordinates": [
          [
            [
              77.593756,
              12.973714
            ],
            [
              77.594264,
              12.973714
            ],
            [
              77.594264,
              12.974179
            ],
            [
              77.593756,
              12.974179
            ],
            [
              77.593756,
              12.973714
            ]
          ]
        ]
      }
    },
    {
      "type": "Feature",
      "id": "BLD-065",
      "properties": {
        "building_id": "BLD-065",
        "parcel_hint": "CULR-56000065",
        "source": "AI building extraction",
        "confidence": 0.92,
        "capture_date": "2026-07-15"
      },
      "geometry": {
        "type": "Polygon",
        "coordinates": [
          [
            [
              77.594945,
              12.973693
            ],
            [
              77.595475,
              12.973693
            ],
            [
              77.595475,
              12.974113
            ],
            [
              77.594945,
              12.974113
            ],
            [
              77.594945,
              12.973693
            ]
          ]
        ]
      }
    },
    {
      "type": "Feature",
      "id": "BLD-066",
      "properties": {
        "building_id": "BLD-066",
        "parcel_hint": "CULR-56000066",
        "source": "AI building extraction",
        "confidence": 0.93,
        "capture_date": "2026-07-15"
      },
      "geometry": {
        "type": "Polygon",
        "coordinates": [
          [
            [
              77.596135,
              12.9737
            ],
            [
              77.596685,
              12.9737
            ],
            [
              77.596685,
              12.974135
            ],
            [
              77.596135,
              12.974135
            ],
            [
              77.596135,
              12.9737
            ]
          ]
        ]
      }
    },
    {
      "type": "Feature",
      "id": "BLD-067",
      "properties": {
        "building_id": "BLD-067",
        "parcel_hint": "CULR-56000067",
        "source": "AI building extraction",
        "confidence": 0.94,
        "capture_date": "2026-07-15"
      },
      "geometry": {
        "type": "Polygon",
        "coordinates": [
          [
            [
              77.597296,
              12.973707
            ],
            [
              77.597804,
              12.973707
            ],
            [
              77.597804,
              12.974157
            ],
            [
              77.597296,
              12.974157
            ],
            [
              77.597296,
              12.973707
            ]
          ]
        ]
      }
    },
    {
      "type": "Feature",
      "id": "BLD-068",
      "properties": {
        "building_id": "BLD-068",
        "parcel_hint": "CULR-56000068",
        "source": "AI building extraction",
        "confidence": 0.95,
        "capture_date": "2026-07-15"
      },
      "geometry": {
        "type": "Polygon",
        "coordinates": [
          [
            [
              77.598485,
              12.973714
            ],
            [
              77.599015,
              12.973714
            ],
            [
              77.599015,
              12.974179
            ],
            [
              77.598485,
              12.974179
            ],
            [
              77.598485,
              12.973714
            ]
          ]
        ]
      }
    },
    {
      "type": "Feature",
      "id": "BLD-069",
      "properties": {
        "building_id": "BLD-069",
        "parcel_hint": "CULR-56000069",
        "source": "AI building extraction",
        "confidence": 0.96,
        "capture_date": "2026-07-15"
      },
      "geometry": {
        "type": "Polygon",
        "coordinates": [
          [
            [
              77.599675,
              12.973693
            ],
            [
              77.600225,
              12.973693
            ],
            [
              77.600225,
              12.974113
            ],
            [
              77.599675,
              12.974113
            ],
            [
              77.599675,
              12.973693
            ]
          ]
        ]
      }
    },
    {
      "type": "Feature",
      "id": "BLD-070",
      "properties": {
        "building_id": "BLD-070",
        "parcel_hint": "CULR-56000070",
        "source": "AI building extraction",
        "confidence": 0.97,
        "capture_date": "2026-07-15"
      },
      "geometry": {
        "type": "Polygon",
        "coordinates": [
          [
            [
              77.600836,
              12.9737
            ],
            [
              77.601344,
              12.9737
            ],
            [
              77.601344,
              12.974135
            ],
            [
              77.600836,
              12.974135
            ],
            [
              77.600836,
              12.9737
            ]
          ]
        ]
      }
    },
    {
      "type": "Feature",
      "id": "BLD-071",
      "properties": {
        "building_id": "BLD-071",
        "parcel_hint": "CULR-56000071",
        "source": "AI building extraction",
        "confidence": 0.84,
        "capture_date": "2026-07-15"
      },
      "geometry": {
        "type": "Polygon",
        "coordinates": [
          [
            [
              77.602025,
              12.973707
            ],
            [
              77.602555,
              12.973707
            ],
            [
              77.602555,
              12.974157
            ],
            [
              77.602025,
              12.974157
            ],
            [
              77.602025,
              12.973707
            ]
          ]
        ]
      }
    },
    {
      "type": "Feature",
      "id": "BLD-072",
      "properties": {
        "building_id": "BLD-072",
        "parcel_hint": "CULR-56000072",
        "source": "AI building extraction",
        "confidence": 0.85,
        "capture_date": "2026-07-15"
      },
      "geometry": {
        "type": "Polygon",
        "coordinates": [
          [
            [
              77.603215,
              12.973714
            ],
            [
              77.603765,
              12.973714
            ],
            [
              77.603765,
              12.974179
            ],
            [
              77.603215,
              12.974179
            ],
            [
              77.603215,
              12.973714
            ]
          ]
        ]
      }
    }
  ]
}