{
  "type": "FeatureCollection",
  "features": [
    {
      "type": "Feature",
      "id": "CAD-001",
      "properties": {
        "canonical_parcel_id": "CULR-56000001",
        "survey_number": "125/1",
        "land_use": "Residential",
        "area_sq_m": 9633.1,
        "ward": "Demo Ward 14",
        "capture_date": "2026-07-15",
        "source_record_id": "CAD-001",
        "source": "Cadastral",
        "positional_accuracy_m": 1.2
      },
      "geometry": {
        "type": "Polygon",
        "coordinates": [
          [
            [
              77.589992,
              12.967985
            ],
            [
              77.590932,
              12.967985
            ],
            [
              77.590932,
              12.968825
            ],
            [
              77.589992,
              12.968825
            ],
            [
              77.589992,
              12.967985
            ]
          ]
        ]
      }
    },
    {
      "type": "Feature",
      "id": "CAD-002",
      "properties": {
        "canonical_parcel_id": "CULR-56000002",
        "survey_number": "125/2",
        "land_use": "Residential",
        "area_sq_m": 10401.7,
        "ward": "Demo Ward 14",
        "capture_date": "2026-07-15",
        "source_record_id": "CAD-002",
        "source": "Cadastral",
        "positional_accuracy_m": 1.2
      },
      "geometry": {
        "type": "Polygon",
        "coordinates": [
          [
            [
              77.591186,
              12.967992
            ],
            [
              77.592166,
              12.967992
            ],
            [
              77.592166,
              12.968862
            ],
            [
              77.591186,
              12.968862
            ],
            [
              77.591186,
              12.967992
            ]
          ]
        ]
      }
    },
    {
      "type": "Feature",
      "id": "CAD-003",
      "properties": {
        "canonical_parcel_id": "CULR-56000003",
        "survey_number": "125/3",
        "land_use": "Commercial",
        "area_sq_m": 11199.6,
        "ward": "Demo Ward 14",
        "capture_date": "2026-07-15",
        "source_record_id": "CAD-003",
        "source": "Cadastral",
        "positional_accuracy_m": 1.2
      },
      "geometry": {
        "type": "Polygon",
        "coordinates": [
          [
            [
              77.592357,
              12.967991
            ],
            [
              77.593377,
              12.967991
            ],
            [
              77.593377,
              12.968891
            ],
            [
              77.592357,
              12.968891
            ],
            [
              77.592357,
              12.967991
            ]
          ]
        ]
      }
    },
    {
      "type": "Feature",
      "id": "CAD-004",
      "properties": {
        "canonical_parcel_id": "CULR-56000004",
        "survey_number": "125/4",
        "land_use": "Mixed use",
        "area_sq_m": 10665.2,
        "ward": "Demo Ward 14",
        "capture_date": "2026-07-15",
        "source_record_id": "CAD-004",
        "source": "Cadastral",
        "positional_accuracy_m": 1.2
      },
      "geometry": {
        "type": "Polygon",
        "coordinates": [
          [
            [
              77.593539,
              12.967986
            ],
            [
              77.594479,
              12.967986
            ],
            [
              77.594479,
              12.968916
            ],
            [
              77.593539,
              12.968916
            ],
            [
              77.593539,
              12.967986
            ]
          ]
        ]
      }
    },
    {
      "type": "Feature",
      "id": "CAD-005",
      "properties": {
        "canonical_parcel_id": "CULR-56000005",
        "survey_number": "125/5",
        "land_use": "Institutional",
        "area_sq_m": 10043.0,
        "ward": "Demo Ward 14",
        "capture_date": "2026-07-15",
        "source_record_id": "CAD-005",
        "source": "Cadastral",
        "positional_accuracy_m": 1.2
      },
      "geometry": {
        "type": "Polygon",
        "coordinates": [
          [
            [
              77.594716,
              12.968005
            ],
            [
              77.595696,
              12.968005
            ],
            [
              77.595696,
              12.968845
            ],
            [
              77.594716,
              12.968845
            ],
            [
              77.594716,
              12.968005
            ]
          ]
        ]
      }
    },
    {
      "type": "Feature",
      "id": "CAD-006",
      "properties": {
        "canonical_parcel_id": "CULR-56000006",
        "survey_number": "125/6",
        "land_use": "Residential",
        "area_sq_m": 10826.3,
        "ward": "Demo Ward 14",
        "capture_date": "2026-07-15",
        "source_record_id": "CAD-006",
        "source": "Cadastral",
        "positional_accuracy_m": 1.2
      },
      "geometry": {
        "type": "Polygon",
        "coordinates": [
          [
            [
              77.595908,
              12.968
            ],
            [
              77.596928,
              12.968
            ],
            [
              77.596928,
              12.96887
            ],
            [
              77.595908,
              12.96887
            ],
            [
              77.595908,
              12.968
            ]
          ]
        ]
      }
    },
    {
      "type": "Feature",
      "id": "CAD-007",
      "properties": {
        "canonical_parcel_id": "CULR-56000007",
        "survey_number": "125/7",
        "land_use": "Residential",
        "area_sq_m": 10321.2,
        "ward": "Demo Ward 14",
        "capture_date": "2026-07-15",
        "source_record_id": "CAD-007",
        "source": "Cadastral",
        "positional_accuracy_m": 1.2
      },
      "geometry": {
        "type": "Polygon",
        "coordinates": [
          [
            [
              77.597092,
              12.967988
            ],
            [
              77.598032,
              12.967988
            ],
            [
              77.598032,
              12.968888
            ],
            [
              77.597092,
              12.968888
            ],
            [
              77.597092,
              12.967988
            ]
          ]
        ]
      }
    },
    {
      "type": "Feature",
      "id": "CAD-008",
      "properties": {
        "canonical_parcel_id": "CULR-56000008",
        "survey_number": "125/8",
        "land_use": "Commercial",
        "area_sq_m": 11119.1,
        "ward": "Demo Ward 14",
        "capture_date": "2026-07-15",
        "source_record_id": "CAD-008",
        "source": "Cadastral",
        "positional_accuracy_m": 1.2
      },
      "geometry": {
        "type": "Polygon",
        "coordinates": [
          [
            [
              77.598262,
              12.967997
            ],
            [
              77.599242,
              12.967997
            ],
            [
              77.599242,
              12.968927
            ],
            [
              77.598262,
              12.968927
            ],
            [
              77.598262,
              12.967997
            ]
          ]
        ]
      }
    },
    {
      "type": "Feature",
      "id": "CAD-009",
      "properties": {
        "canonical_parcel_id": "CULR-56000009",
        "survey_number": "125/9",
        "land_use": "Mixed use",
        "area_sq_m": 10453.0,
        "ward": "Demo Ward 14",
        "capture_date": "2026-07-15",
        "source_record_id": "CAD-009",
        "source": "Cadastral",
        "positional_accuracy_m": 1.2
      },
      "geometry": {
        "type": "Polygon",
        "coordinates": [
          [
            [
              77.599427,
              12.968013
            ],
            [
              77.600447,
              12.968013
            ],
            [
              77.600447,
              12.968853
            ],
            [
              77.599427,
              12.968853
            ],
            [
              77.599427,
              12.968013
            ]
          ]
        ]
      }
    },
    {
      "type": "Feature",
      "id": "CAD-010",
      "properties": {
        "canonical_parcel_id": "CULR-56000010",
        "survey_number": "125/10",
        "land_use": "Institutional",
        "area_sq_m": 9977.2,
        "ward": "Demo Ward 14",
        "capture_date": "2026-07-15",
        "source_record_id": "CAD-010",
        "source": "Cadastral",
        "positional_accuracy_m": 1.2
      },
      "geometry": {
        "type": "Polygon",
        "coordinates": [
          [
            [
              77.600633,
              12.968003
            ],
            [
              77.601573,
              12.968003
            ],
            [
              77.601573,
              12.968873
            ],
            [
              77.600633,
              12.968873
            ],
            [
              77.600633,
              12.968003
            ]
          ]
        ]
      }
    },
    {
      "type": "Feature",
      "id": "CAD-011",
      "properties": {
        "canonical_parcel_id": "CULR-56000011",
        "survey_number": "125/11",
        "land_use": "Residential",
        "area_sq_m": 10760.4,
        "ward": "Demo Ward 14",
        "capture_date": "2026-07-15",
        "source_record_id": "CAD-011",
        "source": "Cadastral",
        "positional_accuracy_m": 1.2
      },
      "geometry": {
        "type": "Polygon",
        "coordinates": [
          [
            [
              77.601814,
              12.967991
            ],
            [
              77.602794,
              12.967991
            ],
            [
              77.602794,
              12.968891
            ],
            [
              77.601814,
              12.968891
            ],
            [
              77.601814,
              12.967991
            ]
          ]
        ]
      }
    },
    {
      "type": "Feature",
      "id": "CAD-012",
      "properties": {
        "canonical_parcel_id": "CULR-56000012",
        "survey_number": "125/12",
        "land_use": "Residential",
        "area_sq_m": 11572.9,
        "ward": "Demo Ward 14",
        "capture_date": "2026-07-15",
        "source_record_id": "CAD-012",
        "source": "Cadastral",
        "positional_accuracy_m": 1.2
      },
      "geometry": {
        "type": "Polygon",
        "coordinates": [
          [
            [
              77.60297,
              12.967994
            ],
            [
              77.60399,
              12.967994
            ],
            [
              77.60399,
              12.968924
            ],
            [
              77.60297,
              12.968924
            ],
            [
              77.60297,
              12.967994
            ]
          ]
        ]
      }
    },
    {
      "type": "Feature",
      "id": "CAD-013",
      "properties": {
        "canonical_parcel_id": "CULR-56000013",
        "survey_number": "126/1",
        "land_use": "Commercial",
        "area_sq_m": 9633.1,
        "ward": "Demo Ward 14",
        "capture_date": "2026-07-15",
        "source_record_id": "CAD-013",
        "source": "Cadastral",
        "positional_accuracy_m": 1.2
      },
      "geometry": {
        "type": "Polygon",
        "coordinates": [
          [
            [
              77.589989,
              12.96909
            ],
            [
              77.590929,
              12.96909
            ],
            [
              77.590929,
              12.96993
            ],
            [
              77.589989,
              12.96993
            ],
            [
              77.589989,
              12.96909
            ]
          ]
        ]
      }
    },
    {
      "type": "Feature",
      "id": "CAD-014",
      "properties": {
        "canonical_parcel_id": "CULR-56000014",
        "survey_number": "126/2",
        "land_use": "Mixed use",
        "area_sq_m": 10401.7,
        "ward": "Demo Ward 14",
        "capture_date": "2026-07-15",
        "source_record_id": "CAD-014",
        "source": "Cadastral",
        "positional_accuracy_m": 1.2
      },
      "geometry": {
        "type": "Polygon",
        "coordinates": [
          [
            [
              77.591167,
              12.969104
            ],
            [
              77.592147,
              12.969104
            ],
            [
              77.592147,
              12.969974
            ],
            [
              77.591167,
              12.969974
            ],
            [
              77.591167,
              12.969104
            ]
          ]
        ]
      }
    },
    {
      "type": "Feature",
      "id": "CAD-015",
      "properties": {
        "canonical_parcel_id": "CULR-56000015",
        "survey_number": "126/3",
        "land_use": "Institutional",
        "area_sq_m": 11199.6,
        "ward": "Demo Ward 14",
        "capture_date": "2026-07-15",
        "source_record_id": "CAD-015",
        "source": "Cadastral",
        "positional_accuracy_m": 1.2
      },
      "geometry": {
        "type": "Polygon",
        "coordinates": [
          [
            [
              77.59235,
              12.969111
            ],
            [
              77.59337,
              12.969111
            ],
            [
              77.59337,
              12.970011
            ],
            [
              77.59235,
              12.970011
            ],
            [
              77.59235,
              12.969111
            ]
          ]
        ]
      }
    },
    {
      "type": "Feature",
      "id": "CAD-016",
      "properties": {
        "canonical_parcel_id": "CULR-56000016",
        "survey_number": "126/4",
        "land_use": "Residential",
        "area_sq_m": 10665.2,
        "ward": "Demo Ward 14",
        "capture_date": "2026-07-15",
        "source_record_id": "CAD-016",
        "source": "Cadastral",
        "positional_accuracy_m": 1.2
      },
      "geometry": {
        "type": "Polygon",
        "coordinates": [
          [
            [
              77.593545,
              12.96909
            ],
            [
              77.594485,
              12.96909
            ],
            [
              77.594485,
              12.97002
            ],
            [
              77.593545,
              12.97002
            ],
            [
              77.593545,
              12.96909
            ]
          ]
        ]
      }
    },
    {
      "type": "Feature",
      "id": "CAD-017",
      "properties": {
        "canonical_parcel_id": "CULR-56000017",
        "survey_number": "126/5",
        "land_use": "Residential",
        "area_sq_m": 10043.0,
        "ward": "Demo Ward 14",
        "capture_date": "2026-07-15",
        "source_record_id": "CAD-017",
        "source": "Cadastral",
        "positional_accuracy_m": 1.2
      },
      "geometry": {
        "type": "Polygon",
        "coordinates": [
          [
            [
              77.594734,
              12.969104
            ],
            [
              77.595714,
              12.969104
            ],
            [
              77.595714,
              12.969944
            ],
            [
              77.594734,
              12.969944
            ],
            [
              77.594734,
              12.969104
            ]
          ]
        ]
      }
    },
    {
      "type": "Feature",
      "id": "CAD-018",
      "properties": {
        "canonical_parcel_id": "CULR-56000018",
        "survey_number": "126/6",
        "land_use": "Commercial",
        "area_sq_m": 10826.3,
        "ward": "Demo Ward 14",
        "capture_date": "2026-07-15",
        "source_record_id": "CAD-018",
        "source": "Cadastral",
        "positional_accuracy_m": 1.2
      },
      "geometry": {
        "type": "Polygon",
        "coordinates": [
          [
            [
              77.595901,
              12.969088
            ],
            [
              77.596921,
              12.969088
            ],
            [
              77.596921,
              12.969958
            ],
            [
              77.595901,
              12.969958
            ],
            [
              77.595901,
              12.969088
            ]
          ]
        ]
      }
    },
    {
      "type": "Feature",
      "id": "CAD-019",
      "properties": {
        "canonical_parcel_id": "CULR-56000019",
        "survey_number": "126/7",
        "land_use": "Mixed use",
        "area_sq_m": 10321.2,
        "ward": "Demo Ward 14",
        "capture_date": "2026-07-15",
        "source_record_id": "CAD-019",
        "source": "Cadastral",
        "positional_accuracy_m": 1.2
      },
      "geometry": {
        "type": "Polygon",
        "coordinates": [
          [
            [
              77.597085,
              12.969102
            ],
            [
              77.598025,
              12.969102
            ],
            [
              77.598025,
              12.970002
            ],
            [
              77.597085,
              12.970002
            ],
            [
              77.597085,
              12.969102
            ]
          ]
        ]
      }
    },
    {
      "type": "Feature",
      "id": "CAD-020",
      "properties": {
        "canonical_parcel_id": "CULR-56000020",
        "survey_number": "126/8",
        "land_use": "Institutional",
        "area_sq_m": 11119.1,
        "ward": "Demo Ward 14",
        "capture_date": "2026-07-15",
        "source_record_id": "CAD-020",
        "source": "Cadastral",
        "positional_accuracy_m": 1.2
      },
      "geometry": {
        "type": "Polygon",
        "coordinates": [
          [
            [
              77.598254,
              12.969111
            ],
            [
              77.599234,
              12.969111
            ],
            [
              77.599234,
              12.970041
            ],
            [
              77.598254,
              12.970041
            ],
            [
              77.598254,
              12.969111
            ]
          ]
        ]
      }
    },
    {
      "type": "Feature",
      "id": "CAD-021",
      "properties": {
        "canonical_parcel_id": "CULR-56000021",
        "survey_number": "126/9",
        "land_use": "Residential",
        "area_sq_m": 10453.0,
        "ward": "Demo Ward 14",
        "capture_date": "2026-07-15",
        "source_record_id": "CAD-021",
        "source": "Cadastral",
        "positional_accuracy_m": 1.2
      },
      "geometry": {
        "type": "Polygon",
        "coordinates": [
          [
            [
              77.599436,
              12.969099
            ],
            [
              77.600456,
              12.969099
            ],
            [
              77.600456,
              12.969939
            ],
            [
              77.599436,
              12.969939
            ],
            [
              77.599436,
              12.969099
            ]
          ]
        ]
      }
    },
    {
      "type": "Feature",
      "id": "CAD-022",
      "properties": {
        "canonical_parcel_id": "CULR-56000022",
        "survey_number": "126/10",
        "land_use": "Residential",
        "area_sq_m": 9977.2,
        "ward": "Demo Ward 14",
        "capture_date": "2026-07-15",
        "source_record_id": "CAD-022",
        "source": "Cadastral",
        "positional_accuracy_m": 1.2
      },
      "geometry": {
        "type": "Polygon",
        "coordinates": [
          [
            [
              77.600625,
              12.969093
            ],
            [
              77.601565,
              12.969093
            ],
            [
              77.601565,
              12.969963
            ],
            [
              77.600625,
              12.969963
            ],
            [
              77.600625,
              12.969093
            ]
          ]
        ]
      }
    },
    {
      "type": "Feature",
      "id": "CAD-023",
      "properties": {
        "canonical_parcel_id": "CULR-56000023",
        "survey_number": "126/11",
        "land_use": "Commercial",
        "area_sq_m": 10760.4,
        "ward": "Demo Ward 14",
        "capture_date": "2026-07-15",
        "source_record_id": "CAD-023",
        "source": "Cadastral",
        "positional_accuracy_m": 1.2
      },
      "geometry": {
        "type": "Polygon",
        "coordinates": [
          [
            [
              77.60181,
              12.969101
            ],
            [
              77.60279,
              12.969101
            ],
            [
              77.60279,
              12.970001
            ],
            [
              77.60181,
              12.970001
            ],
            [
              77.60181,
              12.969101
            ]
          ]
        ]
      }
    },
    {
      "type": "Feature",
      "id": "CAD-024",
      "properties": {
        "canonical_parcel_id": "CULR-56000024",
        "survey_number": "126/12",
        "land_use": "Mixed use",
        "area_sq_m": 11572.9,
        "ward": "Demo Ward 14",
        "capture_date": "2026-07-15",
        "source_record_id": "CAD-024",
        "source": "Cadastral",
        "positional_accuracy_m": 1.2
      },
      "geometry": {
        "type": "Polygon",
        "coordinates": [
          [
            [
              77.602994,
              12.969097
            ],
            [
              77.604014,
              12.969097
            ],
            [
              77.604014,
              12.970027
            ],
            [
              77.602994,
              12.970027
            ],
            [
              77.602994,
              12.969097
            ]
          ]
        ]
      }
    },
    {
      "type": "Feature",
      "id": "CAD-025",
      "properties": {
        "canonical_parcel_id": "CULR-56000025",
        "survey_number": "127/1",
        "land_use": "Institutional",
        "area_sq_m": 9633.1,
        "ward": "Demo Ward 14",
        "capture_date": "2026-07-15",
        "source_record_id": "CAD-025",
        "source": "Cadastral",
        "positional_accuracy_m": 1.2
      },
      "geometry": {
        "type": "Polygon",
        "coordinates": [
          [
            [
              77.589994,
              12.970213
            ],
            [
              77.590934,
              12.970213
            ],
            [
              77.590934,
              12.971053
            ],
            [
              77.589994,
              12.971053
            ],
            [
              77.589994,
              12.970213
            ]
          ]
        ]
      }
    },
    {
      "type": "Feature",
      "id": "CAD-026",
      "properties": {
        "canonical_parcel_id": "CULR-56000026",
        "survey_number": "127/2",
        "land_use": "Residential",
        "area_sq_m": 10401.7,
        "ward": "Demo Ward 14",
        "capture_date": "2026-07-15",
        "source_record_id": "CAD-026",
        "source": "Cadastral",
        "positional_accuracy_m": 1.2
      },
      "geometry": {
        "type": "Polygon",
        "coordinates": [
          [
            [
              77.591169,
              12.970194
            ],
            [
              77.592149,
              12.970194
            ],
            [
              77.592149,
              12.971064
            ],
            [
              77.591169,
              12.971064
            ],
            [
              77.591169,
              12.970194
            ]
          ]
        ]
      }
    },
    {
      "type": "Feature",
      "id": "CAD-027",
      "properties": {
        "canonical_parcel_id": "CULR-56000027",
        "survey_number": "127/3",
        "land_use": "Residential",
        "area_sq_m": 11199.6,
        "ward": "Demo Ward 14",
        "capture_date": "2026-07-15",
        "source_record_id": "CAD-027",
        "source": "Cadastral",
        "positional_accuracy_m": 1.2
      },
      "geometry": {
        "type": "Polygon",
        "coordinates": [
          [
            [
              77.592348,
              12.970194
            ],
            [
              77.593368,
              12.970194
            ],
            [
              77.593368,
              12.971094
            ],
            [
              77.592348,
              12.971094
            ],
            [
              77.592348,
              12.970194
            ]
          ]
        ]
      }
    },
    {
      "type": "Feature",
      "id": "CAD-028",
      "properties": {
        "canonical_parcel_id": "CULR-56000028",
        "survey_number": "127/4",
        "land_use": "Commercial",
        "area_sq_m": 10665.2,
        "ward": "Demo Ward 14",
        "capture_date": "2026-07-15",
        "source_record_id": "CAD-028",
        "source": "Cadastral",
        "positional_accuracy_m": 1.2
      },
      "geometry": {
        "type": "Polygon",
        "coordinates": [
          [
            [
              77.593537,
              12.970205
            ],
            [
              77.594477,
              12.970205
            ],
            [
              77.594477,
              12.971135
            ],
            [
              77.593537,
              12.971135
            ],
            [
              77.593537,
              12.970205
            ]
          ]
        ]
      }
    },
    {
      "type": "Feature",
      "id": "CAD-029",
      "properties": {
        "canonical_parcel_id": "CULR-56000029",
        "survey_number": "127/5",
        "land_use": "Mixed use",
        "area_sq_m": 10043.0,
        "ward": "Demo Ward 14",
        "capture_date": "2026-07-15",
        "source_record_id": "CAD-029",
        "source": "Cadastral",
        "positional_accuracy_m": 1.2
      },
      "geometry": {
        "type": "Polygon",
        "coordinates": [
          [
            [
              77.594733,
              12.970207
            ],
            [
              77.595713,
              12.970207
            ],
            [
              77.595713,
              12.971047
            ],
            [
              77.594733,
              12.971047
            ],
            [
              77.594733,
              12.970207
            ]
          ]
        ]
      }
    },
    {
      "type": "Feature",
      "id": "CAD-030",
      "properties": {
        "canonical_parcel_id": "CULR-56000030",
        "survey_number": "127/6",
        "land_use": "Institutional",
        "area_sq_m": 10826.3,
        "ward": "Demo Ward 14",
        "capture_date": "2026-07-15",
        "source_record_id": "CAD-030",
        "source": "Cadastral",
        "positional_accuracy_m": 1.2
      },
      "geometry": {
        "type": "Polygon",
        "coordinates": [
          [
            [
              77.59589,
              12.970208
            ],
            [
              77.59691,
              12.970208
            ],
            [
              77.59691,
              12.971078
            ],
            [
              77.59589,
              12.971078
            ],
            [
              77.59589,
              12.970208
            ]
          ]
        ]
      }
    },
    {
      "type": "Feature",
      "id": "CAD-031",
      "properties": {
        "canonical_parcel_id": "CULR-56000031",
        "survey_number": "127/7",
        "land_use": "Residential",
        "area_sq_m": 10321.2,
        "ward": "Demo Ward 14",
        "capture_date": "2026-07-15",
        "source_record_id": "CAD-031",
        "source": "Cadastral",
        "positional_accuracy_m": 1.2
      },
      "geometry": {
        "type": "Polygon",
        "coordinates": [
          [
            [
              77.597075,
              12.970213
            ],
            [
              77.598015,
              12.970213
            ],
            [
              77.598015,
              12.971113
            ],
            [
              77.597075,
              12.971113
            ],
            [
              77.597075,
              12.970213
            ]
          ]
        ]
      }
    },
    {
      "type": "Feature",
      "id": "CAD-032",
      "properties": {
        "canonical_parcel_id": "CULR-56000032",
        "survey_number": "127/8",
        "land_use": "Residential",
        "area_sq_m": 11119.1,
        "ward": "Demo Ward 14",
        "capture_date": "2026-07-15",
        "source_record_id": "CAD-032",
        "source": "Cadastral",
        "positional_accuracy_m": 1.2
      },
      "geometry": {
        "type": "Polygon",
        "coordinates": [
          [
            [
              77.598249,
              12.970189
            ],
            [
              77.599229,
              12.970189
            ],
            [
              77.599229,
              12.971119
            ],
            [
              77.598249,
              12.971119
            ],
            [
              77.598249,
              12.970189
            ]
          ]
        ]
      }
    },
    {
      "type": "Feature",
      "id": "CAD-033",
      "properties": {
        "canonical_parcel_id": "CULR-56000033",
        "survey_number": "127/9",
        "land_use": "Commercial",
        "area_sq_m": 10453.0,
        "ward": "Demo Ward 14",
        "capture_date": "2026-07-15",
        "source_record_id": "CAD-033",
        "source": "Cadastral",
        "positional_accuracy_m": 1.2
      },
      "geometry": {
        "type": "Polygon",
        "coordinates": [
          [
            [
              77.599446,
              12.970207
            ],
            [
              77.600466,
              12.970207
            ],
            [
              77.600466,
              12.971047
            ],
            [
              77.599446,
              12.971047
            ],
            [
              77.599446,
              12.970207
            ]
          ]
        ]
      }
    },
    {
      "type": "Feature",
      "id": "CAD-034",
      "properties": {
        "canonical_parcel_id": "CULR-56000034",
        "survey_number": "127/10",
        "land_use": "Mixed use",
        "area_sq_m": 9977.2,
        "ward": "Demo Ward 14",
        "capture_date": "2026-07-15",
        "source_record_id": "CAD-034",
        "source": "Cadastral",
        "positional_accuracy_m": 1.2
      },
      "geometry": {
        "type": "Polygon",
        "coordinates": [
          [
            [
              77.600619,
              12.970199
            ],
            [
              77.601559,
              12.970199
            ],
            [
              77.601559,
              12.971069
            ],
            [
              77.600619,
              12.971069
            ],
            [
              77.600619,
              12.970199
            ]
          ]
        ]
      }
    },
    {
      "type": "Feature",
      "id": "CAD-035",
      "properties": {
        "canonical_parcel_id": "CULR-56000035",
        "survey_number": "127/11",
        "land_use": "Institutional",
        "area_sq_m": 10760.4,
        "ward": "Demo Ward 14",
        "capture_date": "2026-07-15",
        "source_record_id": "CAD-035",
        "source": "Cadastral",
        "positional_accuracy_m": 1.2
      },
      "geometry": {
        "type": "Polygon",
        "coordinates": [
          [
            [
              77.601808,
              12.97021
            ],
            [
              77.602788,
              12.97021
            ],
            [
              77.602788,
              12.97111
            ],
            [
              77.601808,
              12.97111
            ],
            [
              77.601808,
              12.97021
            ]
          ]
        ]
      }
    },
    {
      "type": "Feature",
      "id": "CAD-036",
      "properties": {
        "canonical_parcel_id": "CULR-56000036",
        "survey_number": "127/12",
        "land_use": "Residential",
        "area_sq_m": 11572.9,
        "ward": "Demo Ward 14",
        "capture_date": "2026-07-15",
        "source_record_id": "CAD-036",
        "source": "Cadastral",
        "positional_accuracy_m": 1.2
      },
      "geometry": {
        "type": "Polygon",
        "coordinates": [
          [
            [
              77.602967,
              12.970191
            ],
            [
              77.603987,
              12.970191
            ],
            [
              77.603987,
              12.971121
            ],
            [
              77.602967,
              12.971121
            ],
            [
              77.602967,
              12.970191
            ]
          ]
        ]
      }
    },
    {
      "type": "Feature",
      "id": "CAD-037",
      "properties": {
        "canonical_parcel_id": "CULR-56000037",
        "survey_number": "128/1",
        "land_use": "Residential",
        "area_sq_m": 9633.1,
        "ward": "Demo Ward 14",
        "capture_date": "2026-07-15",
        "source_record_id": "CAD-037",
        "source": "Cadastral",
        "positional_accuracy_m": 1.2
      },
      "geometry": {
        "type": "Polygon",
        "coordinates": [
          [
            [
              77.590008,
              12.9713
            ],
            [
              77.590948,
              12.9713
            ],
            [
              77.590948,
              12.97214
            ],
            [
              77.590008,
              12.97214
            ],
            [
              77.590008,
              12.9713
            ]
          ]
        ]
      }
    },
    {
      "type": "Feature",
      "id": "CAD-038",
      "properties": {
        "canonical_parcel_id": "CULR-56000038",
        "survey_number": "128/2",
        "land_use": "Commercial",
        "area_sq_m": 10401.7,
        "ward": "Demo Ward 14",
        "capture_date": "2026-07-15",
        "source_record_id": "CAD-038",
        "source": "Cadastral",
        "positional_accuracy_m": 1.2
      },
      "geometry": {
        "type": "Polygon",
        "coordinates": [
          [
            [
              77.591182,
              12.971288
            ],
            [
              77.592162,
              12.971288
            ],
            [
              77.592162,
              12.972158
            ],
            [
              77.591182,
              12.972158
            ],
            [
              77.591182,
              12.971288
            ]
          ]
        ]
      }
    },
    {
      "type": "Feature",
      "id": "CAD-039",
      "properties": {
        "canonical_parcel_id": "CULR-56000039",
        "survey_number": "128/3",
        "land_use": "Mixed use",
        "area_sq_m": 11199.6,
        "ward": "Demo Ward 14",
        "capture_date": "2026-07-15",
        "source_record_id": "CAD-039",
        "source": "Cadastral",
        "positional_accuracy_m": 1.2
      },
      "geometry": {
        "type": "Polygon",
        "coordinates": [
          [
            [
              77.592371,
              12.971294
            ],
            [
              77.593391,
              12.971294
            ],
            [
              77.593391,
              12.972194
            ],
            [
              77.592371,
              12.972194
            ],
            [
              77.592371,
              12.971294
            ]
          ]
        ]
      }
    },
    {
      "type": "Feature",
      "id": "CAD-040",
      "properties": {
        "canonical_parcel_id": "CULR-56000040",
        "survey_number": "128/4",
        "land_use": "Institutional",
        "area_sq_m": 10665.2,
        "ward": "Demo Ward 14",
        "capture_date": "2026-07-15",
        "source_record_id": "CAD-040",
        "source": "Cadastral",
        "positional_accuracy_m": 1.2
      },
      "geometry": {
        "type": "Polygon",
        "coordinates": [
          [
            [
              77.593527,
              12.971298
            ],
            [
              77.594467,
              12.971298
            ],
            [
              77.594467,
              12.972228
            ],
            [
              77.593527,
              12.972228
            ],
            [
              77.593527,
              12.971298
            ]
          ]
        ]
      }
    },
    {
      "type": "Feature",
      "id": "CAD-041",
      "properties": {
        "canonical_parcel_id": "CULR-56000041",
        "survey_number": "128/5",
        "land_use": "Residential",
        "area_sq_m": 10043.0,
        "ward": "Demo Ward 14",
        "capture_date": "2026-07-15",
        "source_record_id": "CAD-041",
        "source": "Cadastral",
        "positional_accuracy_m": 1.2
      },
      "geometry": {
        "type": "Polygon",
        "coordinates": [
          [
            [
              77.594707,
              12.971299
            ],
            [
              77.595687,
              12.971299
            ],
            [
              77.595687,
              12.972139
            ],
            [
              77.594707,
              12.972139
            ],
            [
              77.594707,
              12.971299
            ]
          ]
        ]
      }
    },
    {
      "type": "Feature",
      "id": "CAD-042",
      "properties": {
        "canonical_parcel_id": "CULR-56000042",
        "survey_number": "128/6",
        "land_use": "Residential",
        "area_sq_m": 10826.3,
        "ward": "Demo Ward 14",
        "capture_date": "2026-07-15",
        "source_record_id": "CAD-042",
        "source": "Cadastral",
        "positional_accuracy_m": 1.2
      },
      "geometry": {
        "type": "Polygon",
        "coordinates": [
          [
            [
              77.595888,
              12.971313
            ],
            [
              77.596908,
              12.971313
            ],
            [
              77.596908,
              12.972183
            ],
            [
              77.595888,
              12.972183
            ],
            [
              77.595888,
              12.971313
            ]
          ]
        ]
      }
    },
    {
      "type": "Feature",
      "id": "CAD-043",
      "properties": {
        "canonical_parcel_id": "CULR-56000043",
        "survey_number": "128/7",
        "land_use": "Commercial",
        "area_sq_m": 10321.2,
        "ward": "Demo Ward 14",
        "capture_date": "2026-07-15",
        "source_record_id": "CAD-043",
        "source": "Cadastral",
        "positional_accuracy_m": 1.2
      },
      "geometry": {
        "type": "Polygon",
        "coordinates": [
          [
            [
              77.597077,
              12.971296
            ],
            [
              77.598017,
              12.971296
            ],
            [
              77.598017,
              12.972196
            ],
            [
              77.597077,
              12.972196
            ],
            [
              77.597077,
              12.971296
            ]
          ]
        ]
      }
    },
    {
      "type": "Feature",
      "id": "CAD-044",
      "properties": {
        "canonical_parcel_id": "CULR-56000044",
        "survey_number": "128/8",
        "land_use": "Mixed use",
        "area_sq_m": 11119.1,
        "ward": "Demo Ward 14",
        "capture_date": "2026-07-15",
        "source_record_id": "CAD-044",
        "source": "Cadastral",
        "positional_accuracy_m": 1.2
      },
      "geometry": {
        "type": "Polygon",
        "coordinates": [
          [
            [
              77.598254,
              12.971288
            ],
            [
              77.599234,
              12.971288
            ],
            [
              77.599234,
              12.972218
            ],
            [
              77.598254,
              12.972218
            ],
            [
              77.598254,
              12.971288
            ]
          ]
        ]
      }
    },
    {
      "type": "Feature",
      "id": "CAD-045",
      "properties": {
        "canonical_parcel_id": "CULR-56000045",
        "survey_number": "128/9",
        "land_use": "Institutional",
        "area_sq_m": 10453.0,
        "ward": "Demo Ward 14",
        "capture_date": "2026-07-15",
        "source_record_id": "CAD-045",
        "source": "Cadastral",
        "positional_accuracy_m": 1.2
      },
      "geometry": {
        "type": "Polygon",
        "coordinates": [
          [
            [
              77.599428,
              12.971286
            ],
            [
              77.600448,
              12.971286
            ],
            [
              77.600448,
              12.972126
            ],
            [
              77.599428,
              12.972126
            ],
            [
              77.599428,
              12.971286
            ]
          ]
        ]
      }
    },
    {
      "type": "Feature",
      "id": "CAD-046",
      "properties": {
        "canonical_parcel_id": "CULR-56000046",
        "survey_number": "128/10",
        "land_use": "Residential",
        "area_sq_m": 9977.2,
        "ward": "Demo Ward 14",
        "capture_date": "2026-07-15",
        "source_record_id": "CAD-046",
        "source": "Cadastral",
        "positional_accuracy_m": 1.2
      },
      "geometry": {
        "type": "Polygon",
        "coordinates": [
          [
            [
              77.600615,
              12.971306
            ],
            [
              77.601555,
              12.971306
            ],
            [
              77.601555,
              12.972176
            ],
            [
              77.600615,
              12.972176
            ],
            [
              77.600615,
              12.971306
            ]
          ]
        ]
      }
    },
    {
      "type": "Feature",
      "id": "CAD-047",
      "properties": {
        "canonical_parcel_id": "CULR-56000047",
        "survey_number": "128/11",
        "land_use": "Residential",
        "area_sq_m": 10760.4,
        "ward": "Demo Ward 14",
        "capture_date": "2026-07-15",
        "source_record_id": "CAD-047",
        "source": "Cadastral",
        "positional_accuracy_m": 1.2
      },
      "geometry": {
        "type": "Polygon",
        "coordinates": [
          [
            [
              77.601812,
              12.971286
            ],
            [
              77.602792,
              12.971286
            ],
            [
              77.602792,
              12.972186
            ],
            [
              77.601812,
              12.972186
            ],
            [
              77.601812,
              12.971286
            ]
          ]
        ]
      }
    },
    {
      "type": "Feature",
      "id": "CAD-048",
      "properties": {
        "canonical_parcel_id": "CULR-56000048",
        "survey_number": "128/12",
        "land_use": "Commercial",
        "area_sq_m": 11572.9,
        "ward": "Demo Ward 14",
        "capture_date": "2026-07-15",
        "source_record_id": "CAD-048",
        "source": "Cadastral",
        "positional_accuracy_m": 1.2
      },
      "geometry": {
        "type": "Polygon",
        "coordinates": [
          [
            [
              77.602986,
              12.971294
            ],
            [
              77.604006,
              12.971294
            ],
            [
              77.604006,
              12.972224
            ],
            [
              77.602986,
              12.972224
            ],
            [
              77.602986,
              12.971294
            ]
          ]
        ]
      }
    },
    {
      "type": "Feature",
      "id": "CAD-049",
      "properties": {
        "canonical_parcel_id": "CULR-56000049",
        "survey_number": "129/1",
        "land_use": "Mixed use",
        "area_sq_m": 9633.1,
        "ward": "Demo Ward 14",
        "capture_date": "2026-07-15",
        "source_record_id": "CAD-049",
        "source": "Cadastral",
        "positional_accuracy_m": 1.2
      },
      "geometry": {
        "type": "Polygon",
        "coordinates": [
          [
            [
              77.589997,
              12.972387
            ],
            [
              77.590937,
              12.972387
            ],
            [
              77.590937,
              12.973227
            ],
            [
              77.589997,
              12.973227
            ],
            [
              77.589997,
              12.972387
            ]
          ]
        ]
      }
    },
    {
      "type": "Feature",
      "id": "CAD-050",
      "properties": {
        "canonical_parcel_id": "CULR-56000050",
        "survey_number": "129/2",
        "land_use": "Institutional",
        "area_sq_m": 10401.7,
        "ward": "Demo Ward 14",
        "capture_date": "2026-07-15",
        "source_record_id": "CAD-050",
        "source": "Cadastral",
        "positional_accuracy_m": 1.2
      },
      "geometry": {
        "type": "Polygon",
        "coordinates": [
          [
            [
              77.591182,
              12.972409
            ],
            [
              77.592162,
              12.972409
            ],
            [
              77.592162,
              12.973279
            ],
            [
              77.591182,
              12.973279
            ],
            [
              77.591182,
              12.972409
            ]
          ]
        ]
      }
    },
    {
      "type": "Feature",
      "id": "CAD-051",
      "properties": {
        "canonical_parcel_id": "CULR-56000051",
        "survey_number": "129/3",
        "land_use": "Residential",
        "area_sq_m": 11199.6,
        "ward": "Demo Ward 14",
        "capture_date": "2026-07-15",
        "source_record_id": "CAD-051",
        "source": "Cadastral",
        "positional_accuracy_m": 1.2
      },
      "geometry": {
        "type": "Polygon",
        "coordinates": [
          [
            [
              77.592363,
              12.972404
            ],
            [
              77.593383,
              12.972404
            ],
            [
              77.593383,
              12.973304
            ],
            [
              77.592363,
              12.973304
            ],
            [
              77.592363,
              12.972404
            ]
          ]
        ]
      }
    },
    {
      "type": "Feature",
      "id": "CAD-052",
      "properties": {
        "canonical_parcel_id": "CULR-56000052",
        "survey_number": "129/4",
        "land_use": "Residential",
        "area_sq_m": 10665.2,
        "ward": "Demo Ward 14",
        "capture_date": "2026-07-15",
        "source_record_id": "CAD-052",
        "source": "Cadastral",
        "positional_accuracy_m": 1.2
      },
      "geometry": {
        "type": "Polygon",
        "coordinates": [
          [
            [
              77.593539,
              12.972397
            ],
            [
              77.594479,
              12.972397
            ],
            [
              77.594479,
              12.973327
            ],
            [
              77.593539,
              12.973327
            ],
            [
              77.593539,
              12.972397
            ]
          ]
        ]
      }
    },
    {
      "type": "Feature",
      "id": "CAD-053",
      "properties": {
        "canonical_parcel_id": "CULR-56000053",
        "survey_number": "129/5",
        "land_use": "Commercial",
        "area_sq_m": 10043.0,
        "ward": "Demo Ward 14",
        "capture_date": "2026-07-15",
        "source_record_id": "CAD-053",
        "source": "Cadastral",
        "positional_accuracy_m": 1.2
      },
      "geometry": {
        "type": "Polygon",
        "coordinates": [
          [
            [
              77.594732,
              12.972407
            ],
            [
              77.595712,
              12.972407
            ],
            [
              77.595712,
              12.973247
            ],
            [
              77.594732,
              12.973247
            ],
            [
              77.594732,
              12.972407
            ]
          ]
        ]
      }
    },
    {
      "type": "Feature",
      "id": "CAD-054",
      "properties": {
        "canonical_parcel_id": "CULR-56000054",
        "survey_number": "129/6",
        "land_use": "Mixed use",
        "area_sq_m": 10826.3,
        "ward": "Demo Ward 14",
        "capture_date": "2026-07-15",
        "source_record_id": "CAD-054",
        "source": "Cadastral",
        "positional_accuracy_m": 1.2
      },
      "geometry": {
        "type": "Polygon",
        "coordinates": [
          [
            [
              77.595885,
              12.972401
            ],
            [
              77.596905,
              12.972401
            ],
            [
              77.596905,
              12.973271
            ],
            [
              77.595885,
              12.973271
            ],
            [
              77.595885,
              12.972401
            ]
          ]
        ]
      }
    },
    {
      "type": "Feature",
      "id": "CAD-055",
      "properties": {
        "canonical_parcel_id": "CULR-56000055",
        "survey_number": "129/7",
        "land_use": "Institutional",
        "area_sq_m": 10321.2,
        "ward": "Demo Ward 14",
        "capture_date": "2026-07-15",
        "source_record_id": "CAD-055",
        "source": "Cadastral",
        "positional_accuracy_m": 1.2
      },
      "geometry": {
        "type": "Polygon",
        "coordinates": [
          [
            [
              77.597075,
              12.972415
            ],
            [
              77.598015,
              12.972415
            ],
            [
              77.598015,
              12.973315
            ],
            [
              77.597075,
              12.973315
            ],
            [
              77.597075,
              12.972415
            ]
          ]
        ]
      }
    },
    {
      "type": "Feature",
      "id": "CAD-056",
      "properties": {
        "canonical_parcel_id": "CULR-56000056",
        "survey_number": "129/8",
        "land_use": "Residential",
        "area_sq_m": 11119.1,
        "ward": "Demo Ward 14",
        "capture_date": "2026-07-15",
        "source_record_id": "CAD-056",
        "source": "Cadastral",
        "positional_accuracy_m": 1.2
      },
      "geometry": {
        "type": "Polygon",
        "coordinates": [
          [
            [
              77.598253,
              12.972395
            ],
            [
              77.599233,
              12.972395
            ],
            [
              77.599233,
              12.973325
            ],
            [
              77.598253,
              12.973325
            ],
            [
              77.598253,
              12.972395
            ]
          ]
        ]
      }
    },
    {
      "type": "Feature",
      "id": "CAD-057",
      "properties": {
        "canonical_parcel_id": "CULR-56000057",
        "survey_number": "129/9",
        "land_use": "Residential",
        "area_sq_m": 10453.0,
        "ward": "Demo Ward 14",
        "capture_date": "2026-07-15",
        "source_record_id": "CAD-057",
        "source": "Cadastral",
        "positional_accuracy_m": 1.2
      },
      "geometry": {
        "type": "Polygon",
        "coordinates": [
          [
            [
              77.599432,
              12.972413
            ],
            [
              77.600452,
              12.972413
            ],
            [
              77.600452,
              12.973253
            ],
            [
              77.599432,
              12.973253
            ],
            [
              77.599432,
              12.972413
            ]
          ]
        ]
      }
    },
    {
      "type": "Feature",
      "id": "CAD-058",
      "properties": {
        "canonical_parcel_id": "CULR-56000058",
        "survey_number": "129/10",
        "land_use": "Commercial",
        "area_sq_m": 9977.2,
        "ward": "Demo Ward 14",
        "capture_date": "2026-07-15",
        "source_record_id": "CAD-058",
        "source": "Cadastral",
        "positional_accuracy_m": 1.2
      },
      "geometry": {
        "type": "Polygon",
        "coordinates": [
          [
            [
              77.600616,
              12.972395
            ],
            [
              77.601556,
              12.972395
            ],
            [
              77.601556,
              12.973265
            ],
            [
              77.600616,
              12.973265
            ],
            [
              77.600616,
              12.972395
            ]
          ]
        ]
      }
    },
    {
      "type": "Feature",
      "id": "CAD-059",
      "properties": {
        "canonical_parcel_id": "CULR-56000059",
        "survey_number": "129/11",
        "land_use": "Mixed use",
        "area_sq_m": 10760.4,
        "ward": "Demo Ward 14",
        "capture_date": "2026-07-15",
        "source_record_id": "CAD-059",
        "source": "Cadastral",
        "positional_accuracy_m": 1.2
      },
      "geometry": {
        "type": "Polygon",
        "coordinates": [
          [
            [
              77.601802,
              12.9724
            ],
            [
              77.602782,
              12.9724
            ],
            [
              77.602782,
              12.9733
            ],
            [
              77.601802,
              12.9733
            ],
            [
              77.601802,
              12.9724
            ]
          ]
        ]
      }
    },
    {
      "type": "Feature",
      "id": "CAD-060",
      "properties": {
        "canonical_parcel_id": "CULR-56000060",
        "survey_number": "129/12",
        "land_use": "Institutional",
        "area_sq_m": 11572.9,
        "ward": "Demo Ward 14",
        "capture_date": "2026-07-15",
        "source_record_id": "CAD-060",
        "source": "Cadastral",
        "positional_accuracy_m": 1.2
      },
      "geometry": {
        "type": "Polygon",
        "coordinates": [
          [
            [
              77.602985,
              12.97239
            ],
            [
              77.604005,
              12.97239
            ],
            [
              77.604005,
              12.97332
            ],
            [
              77.602985,
              12.97332
            ],
            [
              77.602985,
              12.97239
            ]
          ]
        ]
      }
    },
    {
      "type": "Feature",
      "id": "CAD-061",
      "properties": {
        "canonical_parcel_id": "CULR-56000061",
        "survey_number": "130/1",
        "land_use": "Residential",
        "area_sq_m": 9633.1,
        "ward": "Demo Ward 14",
        "capture_date": "2026-07-15",
        "source_record_id": "CAD-061",
        "source": "Cadastral",
        "positional_accuracy_m": 1.2
      },
      "geometry": {
        "type": "Polygon",
        "coordinates": [
          [
            [
              77.59001,
              12.973514
            ],
            [
              77.59095,
              12.973514
            ],
            [
              77.59095,
              12.974354
            ],
            [
              77.59001,
              12.974354
            ],
            [
              77.59001,
              12.973514
            ]
          ]
        ]
      }
    },
    {
      "type": "Feature",
      "id": "CAD-062",
      "properties": {
        "canonical_parcel_id": "CULR-56000062",
        "survey_number": "130/2",
        "land_use": "Residential",
        "area_sq_m": 10401.7,
        "ward": "Demo Ward 14",
        "capture_date": "2026-07-15",
        "source_record_id": "CAD-062",
        "source": "Cadastral",
        "positional_accuracy_m": 1.2
      },
      "geometry": {
        "type": "Polygon",
        "coordinates": [
          [
            [
              77.591176,
              12.973487
            ],
            [
              77.592156,
              12.973487
            ],
            [
              77.592156,
              12.974357
            ],
            [
              77.591176,
              12.974357
            ],
            [
              77.591176,
              12.973487
            ]
          ]
        ]
      }
    },
    {
      "type": "Feature",
      "id": "CAD-063",
      "properties": {
        "canonical_parcel_id": "CULR-56000063",
        "survey_number": "130/3",
        "land_use": "Commercial",
        "area_sq_m": 11199.6,
        "ward": "Demo Ward 14",
        "capture_date": "2026-07-15",
        "source_record_id": "CAD-063",
        "source": "Cadastral",
        "positional_accuracy_m": 1.2
      },
      "geometry": {
        "type": "Polygon",
        "coordinates": [
          [
            [
              77.592357,
              12.973491
            ],
            [
              77.593377,
              12.973491
            ],
            [
              77.593377,
              12.974391
            ],
            [
              77.592357,
              12.974391
            ],
            [
              77.592357,
              12.973491
            ]
          ]
        ]
      }
    },
    {
      "type": "Feature",
      "id": "CAD-064",
      "properties": {
        "canonical_parcel_id": "CULR-56000064",
        "survey_number": "130/4",
        "land_use": "Mixed use",
        "area_sq_m": 10665.2,
        "ward": "Demo Ward 14",
        "capture_date": "2026-07-15",
        "source_record_id": "CAD-064",
        "source": "Cadastral",
        "positional_accuracy_m": 1.2
      },
      "geometry": {
        "type": "Polygon",
        "coordinates": [
          [
            [
              77.593539,
              12.973513
            ],
            [
              77.594479,
              12.973513
            ],
            [
              77.594479,
              12.974443
            ],
            [
              77.593539,
              12.974443
            ],
            [
              77.593539,
              12.973513
            ]
          ]
        ]
      }
    },
    {
      "type": "Feature",
      "id": "CAD-065",
      "properties": {
        "canonical_parcel_id": "CULR-56000065",
        "survey_number": "130/5",
        "land_use": "Institutional",
        "area_sq_m": 10043.0,
        "ward": "Demo Ward 14",
        "capture_date": "2026-07-15",
        "source_record_id": "CAD-065",
        "source": "Cadastral",
        "positional_accuracy_m": 1.2
      },
      "geometry": {
        "type": "Polygon",
        "coordinates": [
          [
            [
              77.594706,
              12.973495
            ],
            [
              77.595686,
              12.973495
            ],
            [
              77.595686,
              12.974335
            ],
            [
              77.594706,
              12.974335
            ],
            [
              77.594706,
              12.973495
            ]
          ]
        ]
      }
    },
    {
      "type": "Feature",
      "id": "CAD-066",
      "properties": {
        "canonical_parcel_id": "CULR-56000066",
        "survey_number": "130/6",
        "land_use": "Residential",
        "area_sq_m": 10826.3,
        "ward": "Demo Ward 14",
        "capture_date": "2026-07-15",
        "source_record_id": "CAD-066",
        "source": "Cadastral",
        "positional_accuracy_m": 1.2
      },
      "geometry": {
        "type": "Polygon",
        "coordinates": [
          [
            [
              77.595896,
              12.973512
            ],
            [
              77.596916,
              12.973512
            ],
            [
              77.596916,
              12.974382
            ],
            [
              77.595896,
              12.974382
            ],
            [
              77.595896,
              12.973512
            ]
          ]
        ]
      }
    },
    {
      "type": "Feature",
      "id": "CAD-067",
      "properties": {
        "canonical_parcel_id": "CULR-56000067",
        "survey_number": "130/7",
        "land_use": "Residential",
        "area_sq_m": 10321.2,
        "ward": "Demo Ward 14",
        "capture_date": "2026-07-15",
        "source_record_id": "CAD-067",
        "source": "Cadastral",
        "positional_accuracy_m": 1.2
      },
      "geometry": {
        "type": "Polygon",
        "coordinates": [
          [
            [
              77.597084,
              12.973494
            ],
            [
              77.598024,
              12.973494
            ],
            [
              77.598024,
              12.974394
            ],
            [
              77.597084,
              12.974394
            ],
            [
              77.597084,
              12.973494
            ]
          ]
        ]
      }
    },
    {
      "type": "Feature",
      "id": "CAD-068",
      "properties": {
        "canonical_parcel_id": "CULR-56000068",
        "survey_number": "130/8",
        "land_use": "Commercial",
        "area_sq_m": 11119.1,
        "ward": "Demo Ward 14",
        "capture_date": "2026-07-15",
        "source_record_id": "CAD-068",
        "source": "Cadastral",
        "positional_accuracy_m": 1.2
      },
      "geometry": {
        "type": "Polygon",
        "coordinates": [
          [
            [
              77.598268,
              12.97349
            ],
            [
              77.599248,
              12.97349
            ],
            [
              77.599248,
              12.97442
            ],
            [
              77.598268,
              12.97442
            ],
            [
              77.598268,
              12.97349
            ]
          ]
        ]
      }
    },
    {
      "type": "Feature",
      "id": "CAD-069",
      "properties": {
        "canonical_parcel_id": "CULR-56000069",
        "survey_number": "130/9",
        "land_use": "Mixed use",
        "area_sq_m": 10453.0,
        "ward": "Demo Ward 14",
        "capture_date": "2026-07-15",
        "source_record_id": "CAD-069",
        "source": "Cadastral",
        "positional_accuracy_m": 1.2
      },
      "geometry": {
        "type": "Polygon",
        "coordinates": [
          [
            [
              77.599438,
              12.973513
            ],
            [
              77.600458,
              12.973513
            ],
            [
              77.600458,
              12.974353
            ],
            [
              77.599438,
              12.974353
            ],
            [
              77.599438,
              12.973513
            ]
          ]
        ]
      }
    },
    {
      "type": "Feature",
      "id": "CAD-070",
      "properties": {
        "canonical_parcel_id": "CULR-56000070",
        "survey_number": "130/10",
        "land_use": "Institutional",
        "area_sq_m": 9977.2,
        "ward": "Demo Ward 14",
        "capture_date": "2026-07-15",
        "source_record_id": "CAD-070",
        "source": "Cadastral",
        "positional_accuracy_m": 1.2
      },
      "geometry": {
        "type": "Polygon",
        "coordinates": [
          [
            [
              77.60063,
              12.973509
            ],
            [
              77.60157,
              12.973509
            ],
            [
              77.60157,
              12.974379
            ],
            [
              77.60063,
              12.974379
            ],
            [
              77.60063,
              12.973509
            ]
          ]
        ]
      }
    },
    {
      "type": "Feature",
      "id": "CAD-071",
      "properties": {
        "canonical_parcel_id": "CULR-56000071",
        "survey_number": "130/11",
        "land_use": "Residential",
        "area_sq_m": 10760.4,
        "ward": "Demo Ward 14",
        "capture_date": "2026-07-15",
        "source_record_id": "CAD-071",
        "source": "Cadastral",
        "positional_accuracy_m": 1.2
      },
      "geometry": {
        "type": "Polygon",
        "coordinates": [
          [
            [
              77.601806,
              12.973497
            ],
            [
              77.602786,
              12.973497
            ],
            [
              77.602786,
              12.974397
            ],
            [
              77.601806,
              12.974397
            ],
            [
              77.601806,
              12.973497
            ]
          ]
        ]
      }
    },
    {
      "type": "Feature",
      "id": "CAD-072",
      "properties": {
        "canonical_parcel_id": "CULR-56000072",
        "survey_number": "130/12",
        "land_use": "Residential",
        "area_sq_m": 11572.9,
        "ward": "Demo Ward 14",
        "capture_date": "2026-07-15",
        "source_record_id": "CAD-072",
        "source": "Cadastral",
        "positional_accuracy_m": 1.2
      },
      "geometry": {
        "type": "Polygon",
        "coordinates": [
          [
            [
              77.602982,
              12.973512
            ],
            [
              77.604002,
              12.973512
            ],
            [
              77.604002,
              12.974442
            ],
            [
              77.602982,
              12.974442
            ],
            [
              77.602982,
              12.973512
            ]
          ]
        ]
      }
    }
  ]
}